AMC-1 (GE-1)            
1 24315U 96054A   23255.97618826 -.00000272  00000+0  00000+0 0  9993
2 24315   6.6915  69.1369 0006810 167.8801  65.3801  0.99509372 98907
AMC-3 (GE-3)            
1 24936U 97050A   23256.35653275 -.00000265  00000+0  00000+0 0  9991
2 24936   5.6532  75.0463 0002802  99.1909 234.2061  1.00273055 95343
ASTRA 1G                
1 25071U 97076A   23255.29145115 -.00000245  00000+0  00000+0 0  9999
2 25071   7.1557  63.7324 0010385 115.3175 254.4573  0.99040800 94381
ASTRA 2A                
1 25462U 98050A   23255.68806649  .00000062  00000+0  00000+0 0  9991
2 25462   4.5359  80.6116 0002951  93.2676 122.4659  1.00273697 36226
NSS-11 (AAP-1)          
1 26554U 00059A   23256.43069394  .00000019  00000+0  00000+0 0  9990
2 26554   0.0473 307.2690 0002821 223.4869 152.4553  1.00272564 84062
AMC-6 (GE-6)            
1 26580U 00067A   23256.45948008  .00000098  00000+0  00000+0 0  9995
2 26580   0.0452 307.3716 0002760 241.1552 190.0746  1.00271722 83882
ASTRA 2C                
1 26853U 01025A   23256.35644574 -.00000263  00000+0  00000+0 0  9998
2 26853   5.6758  74.8627 0002408  99.2027 233.8642  1.00270543 81463
NSS-7                   
1 27414U 02019A   23255.29197326 -.00000164  00000+0  00000+0 0  9996
2 27414   6.9556  67.3973 0002248 115.9803 252.7894  1.00272142 78459
NSS-6                   
1 27603U 02057A   23256.09851090  .00000065  00000+0  00000+0 0  9991
2 27603   2.7563  86.6189 0002776 158.9924 213.5732  0.99121991 75928
AMC-11 (GE-11)          
1 28252U 04017A   23256.06204845 -.00000057  00000+0  00000+0 0  9999
2 28252   0.0490 312.8690 0002166 256.5506  53.6111  1.00272756 70595
AMC-15                  
1 28446U 04041A   23256.06326677 -.00000096  00000+0  00000+0 0  9992
2 28446   0.0496 312.1627 0002255 206.9042 110.4584  1.00272389 69239
NSS-10 (AMC-12)         
1 28526U 05003A   23256.22827313 -.00000256  00000+0  00000+0 0  9999
2 28526   3.9117  82.3612 0002816  80.1191 234.2156  1.00273385 68214
ASTRA 1KR               
1 29055U 06012A   23255.58642984  .00000111  00000+0  00000+0 0  9994
2 29055   0.0684 280.8501 0004344 280.3290  20.4443  1.00271343 35617
AMC-18                  
1 29644U 06054B   23256.36021530 -.00000223  00000+0  00000+0 0  9994
2 29644   0.0451 311.1257 0002314 225.6236 222.0301  1.00273330 61414
ASTRA 1L                
1 31306U 07016A   23255.58642984  .00000111  00000+0  00000+0 0  9991
2 31306   0.0803 306.2634 0002820 270.6720   4.6726  1.00271319 34899
ASTRA 4A (SIRIUS 4)     
1 32299U 07057A   23255.58347106  .00000024  00000+0  00000+0 0  9999
2 32299   0.0457 302.9549 0002835 243.1072  20.1239  1.00272967 41558
AMC-21                  
1 33275U 08038B   23256.02972000  .00000029  00000+0  00000+0 0  9996
2 33275   0.3333  95.0334 0003048  89.9091  52.6179  1.00271730 55358
ASTRA 1M                
1 33436U 08057A   23256.29979990  .00000114  00000+0  00000+0 0  9995
2 33436   0.0182 213.8100 0004987 311.5103 313.8603  1.00276581 54372
CIEL-2                  
1 33453U 08063A   23256.42633333  .00000051  00000+0  00000+0 0  9994
2 33453   0.1543  96.9284 0002813  83.7394 196.1241  1.00273417 54029
NSS-9                   
1 33749U 09008A   23255.83402616  .00000064  00000+0  00000+0 0  9998
2 33749   0.0477 314.6596 0002005 218.9465 301.2975  1.00274165 53418
SES-7 (PROTOSTAR 2)     
1 34941U 09027A   23256.03411424 -.00000352  00000+0  00000+0 0  9995
2 34941   0.0260  78.2369 0001732 147.5329 246.5298  1.00270896 52501
NSS-12                  
1 36032U 09058A   23256.37966229  .00000065  00000+0  00000+0 0  9997
2 36032   0.0456 304.0259 0002649 234.4833   7.2793  1.00272740 50806
SES-1                   
1 36516U 10016A   23256.44347455 -.00000121  00000+0  00000+0 0  9996
2 36516   0.0520 301.0441 0002368 248.6216 221.1732  1.00272346 49030
ASTRA 3B                
1 36581U 10021A   23255.58730007  .00000128  00000+0  00000+0 0  9993
2 36581   0.0507  10.3306 0003424 154.6452  61.2704  1.00270140 48760
SES-3                   
1 37748U 11035A   23256.06370189 -.00000110  00000+0  00000+0 0  9992
2 37748   0.0490 318.2406 0002731 201.9520 111.5373  1.00272762 44589
ASTRA 1N                
1 37775U 11041A   23255.29980530  .00000111  00000+0  00000+0 0  9990
2 37775   0.0244 359.1123 0002198 111.6189   7.4471  1.00272511 34416
SES-2                   
1 37809U 11049A   23255.85203983 -.00000204  00000+0  00000+0 0  9992
2 37809   0.0572 294.0328 0002351 237.9060  39.3962  1.00273443 43844
QUETZSAT 1              
1 37826U 11054A   23255.85386730 -.00000249  00000+0  00000+0 0  9998
2 37826   0.0446 308.3530 0002242 230.2947  43.3489  1.00271001 39770
SES-4                   
1 38087U 12007A   23255.43486434 -.00000177  00000+0  00000+0 0  9993
2 38087   0.0187  84.8325 0002504  96.1847 304.7132  1.00269806 42121
SES-5                   
1 38652U 12036A   23255.58347106  .00000025  00000+0  00000+0 0  9992
2 38652   0.0560 309.2611 0002011 230.1902  26.9076  1.00272649 34378
ASTRA 2F                
1 38778U 12051A   23256.08980865  .00000142  00000+0  00000+0 0  9999
2 38778   0.0793 252.9965 0003755 311.2545 208.0864  1.00270276 40189
SES-6                   
1 39172U 13026A   23255.43120937 -.00000270  00000+0  00000+0 0  9998
2 39172   0.0589 301.6880 0002520 246.3501 277.8652  1.00272677 37618
O3B FM5                 
1 39188U 13031A   23254.83014207 -.00000030  00000+0  00000+0 0  9990
2 39188   0.0392 347.2048 0002985 182.1034 190.6981  5.00115732186548
O3B FM4                 
1 39189U 13031B   23256.48493360 -.00000027  00000+0  00000+0 0  9991
2 39189   0.0569  13.8084 0002947 158.0055 188.1918  5.00116239186730
O3B FM2                 
1 39190U 13031C   23254.97773675 -.00000030  00000+0  00000+0 0  9999
2 39190   0.0600  17.6513 0002781 151.6063 190.7484  5.00115423186620
O3B PFM                 
1 39191U 13031D   23255.80313562 -.00000028  00000+0  00000+0 0  9995
2 39191   0.0448 356.8105 0002548 173.4525 189.7424  5.00116042186217
ASTRA 2E                
1 39285U 13056A   23256.08989567  .00000143  00000+0  00000+0 0  9998
2 39285   0.0857 316.5768 0003006 217.7630 238.3424  1.00270931 36480
SES-8                   
1 39460U 13071A   23255.78700814 -.00000278  00000+0  00000+0 0  9992
2 39460   0.0572 268.0607 0001936 245.3664 216.4295  1.00273783 34317
ASTRA 5B                
1 39617U 14011B   23255.58730007  .00000128  00000+0  00000+0 0  9999
2 39617   0.0799 304.6892 0003323 255.4142  26.1314  1.00271899 34550
O3B FM3                 
1 40079U 14038A   23255.65764712 -.00000028  00000+0  00000+0 0  9990
2 40079   0.0506   8.7760 0000339 110.7937 240.4341  5.00116759162588
O3B FM7                 
1 40080U 14038B   23256.20392851 -.00000027  00000+0  00000+0 0  9994
2 40080   0.0506  13.9032 0004402 154.3962 191.7116  5.00115936167733
O3B FM6                 
1 40081U 14038C   23255.23111154 -.00000029  00000+0  00000+0 0  9994
2 40081   0.0516   8.8123 0002621 159.7286 191.4653  5.00115338167355
O3B FM8                 
1 40082U 14038D   23255.48456694 -.00000029  00000+0  00000+0 0  9993
2 40082   0.0546  10.2712 0002557 162.3092 187.4237  5.00116023167482
O3B FM10                
1 40348U 14083A   23255.11124931 -.00000029  00000+0  00000+0 0  9994
2 40348   0.0498 358.8407 0002596 171.2766 189.8879  5.00115383159415
O3B FM11                
1 40349U 14083B   23255.52433694 -.00000029  00000+0  00000+0 0  9999
2 40349   0.0454   0.8916 0003186 160.8541 198.2661  5.00115591159445
O3B FM12                
1 40350U 14083C   23252.35336460 -.00000031  00000+0  00000+0 0  9995
2 40350   0.0463   1.1370 0002646 161.0186 197.8532  5.00115489159294
O3B FM9                 
1 40351U 14083D   23255.37818239 -.00000029  00000+0  00000+0 0  9997
2 40351   0.0443   1.0396 0002677 168.9600 190.0060  5.00115117159605
ASTRA 2G                
1 40364U 14089A   23256.08980865  .00000142  00000+0  00000+0 0  9996
2 40364   0.0138 341.8534 0002300 121.2207 309.2741  1.00273499 31914
SES-9                   
1 41380U 16013A   23255.66114108 -.00000354  00000+0  00000+0 0  9992
2 41380   0.0462 292.7941 0001673 202.4553 202.4613  1.00271945 27323
SES-10                  
1 42432U 17017A   23256.35749001 -.00000279  00000+0  00000+0 0  9995
2 42432   0.0234  82.8408 0002403  96.7537 234.2984  1.00270802 23627
SES-15                  
1 42709U 17026A   23256.30882850  .00000053  00000+0  00000+0 0  9996
2 42709   0.0310  36.5158 0000502 137.9652 159.5916  1.00272724 24081
SES-11 (ECHOSTAR 105)   
1 42967U 17063A   23256.44093069 -.00000096  00000+0  00000+0 0  9992
2 42967   0.0187 172.3162 0002604  35.6649 197.9835  1.00269607 21706
SES-14                  
1 43175U 18012B   23255.48868887 -.00000287  00000+0  00000+0 0  9992
2 43175   0.0340 294.3438 0001026 239.7004 305.6233  1.00271560 20956
O3B FM15                
1 43231U 18024A   23254.84457812 -.00000030  00000+0  00000+0 0  9995
2 43231   0.0529 357.0410 0002693 168.7002 194.2665  5.00114569100538
O3B FM16                
1 43232U 18024B   23255.49740699 -.00000029  00000+0  00000+0 0  9994
2 43232   0.0561 354.3249 0002739 172.1682 193.5145  5.00116301100484
O3B FM14                
1 43233U 18024C   23255.73733552 -.00000028  00000+0  00000+0 0  9991
2 43233   0.0576 354.0136 0002920 173.1786 192.8157  5.00115764100501
O3B FM13                
1 43234U 18024D   23255.99091444 -.00000028  00000+0  00000+0 0  9997
2 43234   0.0435 359.9525 0002594 150.8342 209.2283  5.00115638100759
SES-12                  
1 43488U 18049A   23256.09979906 -.00000277  00000+0  00000+0 0  9991
2 43488   0.0204  69.7717 0001741 169.5593 243.4315  1.00270236 19309
O3B FM20                
1 44112U 19020A   23255.96390695 -.00000028  00000+0  00000+0 0  9997
2 44112   0.0502 359.3891 0002890 160.5552 200.0676  5.00115835 81213
O3B FM19                
1 44113U 19020B   23255.39123730 -.00000029  00000+0  00000+0 0  9990
2 44113   0.0285 355.3907 0004172 178.7487 185.8657  5.00115593 80960
O3B FM17                
1 44114U 19020C   23255.27150004 -.00000029  00000+0  00000+0 0  9992
2 44114   0.0691   4.8748 0002683 159.7130 195.4206  5.00116064 81052
O3B FM18                
1 44115U 19020D   23255.21793614 -.00000029  00000+0  00000+0 0  9997
2 44115   0.0499 359.1981 0002685 169.4967 191.3114  5.00116103 81172
SES-17                  
1 49332U 21095A   23255.92751160 -.00000280  00000+0  00000+0 0  9995
2 49332   0.0281 143.6863 0001327  44.1756  70.6216  1.00271068  7728
SES-22                  
1 52933U 22071A   23255.69914122  .00000079  00000+0  00000+0 0  9999
2 52933   0.0227 249.5568 0001058 297.9240 280.6677  1.00274614  4455
SES-20                  
1 53960U 22123A   23255.84873297 -.00000109  00000+0  00000+0 0  9997
2 53960   0.0161 164.6237 0001711 302.5993  86.8041  1.00270789  3423
SES-21                  
1 53961U 22123B   23255.69992441  .00000061  00000+0  00000+0 0  9990
2 53961   0.0152  97.0775 0001015  69.3923 305.9505  1.00269352  3433
O3B MPOWER F1           
1 54755U 22174A   23256.30309194 -.00000027  00000+0  00000+0 0  9997
2 54755   0.0458  16.2508 0004761 170.3524 188.6301  5.00118542 14926
O3B MPOWER F2           
1 54756U 22174B   23255.60622062 -.00000028  00000+0  00000+0 0  9993
2 54756   0.0479  17.4511 0006370 208.2645 134.2326  5.00113865 14983
SES-18                  
1 55970U 23038A   23256.06370189 -.00000109  00000+0  00000+0 0  9993
2 55970   0.0532 265.8869 0001729 313.1557  52.5950  1.00273465  2002
SES-19                  
1 55971U 23038B   23256.43521750  .00000081  00000+0  00000+0 0  9995
2 55971   0.0380 281.8193 0001573 245.3491 206.7708  1.00273930  1989
O3B MPOWER F4           
1 56367U 23059A   23255.52735985 -.00000029  00000+0  00000+0 0  9997
2 56367   0.0389 354.7393 0006188 191.4681 173.7852  5.00115554  8137
O3B MPOWER F3           
1 56368U 23059B   23255.42755189 -.00000029  00000+0  00000+0 0  9995
2 56368   0.0391 351.4324 0002420 200.6444 167.9177  5.00115140  4271
